OBJECT_NAME,OBJECT_ID,EPOCH,MEAN_MOTION,ECCENTRICITY,INCLINATION,RA_OF_ASC_NODE,ARG_OF_PERICENTER,MEAN_ANOMALY,EPHEMERIS_TYPE,CLASSIFICATION_TYPE,NORAD_CAT_ID,ELEMENT_SET_NO,REV_AT_EPOCH,BSTAR,MEAN_MOTION_DOT,MEAN_MOTION_DDOT
ONEWEB-0053,2020-008AC,2026-06-25T16:12:57.132000,13.10403465,.0001579,87.8824,34.5927,69.2255,290.9041,0,U,45157,999,30902,-.14173E-1,-.4934E-4,0
ONEWEB-0054,2020-008AD,2026-06-25T15:14:19.311936,13.10355711,.0002395,87.8832,34.5862,92.3223,267.8179,0,U,45158,999,30913,.47466E-2,.1669E-4,0
ONEWEB-0056,2020-008AE,2026-06-25T16:22:31.280736,13.10388255,.0002118,87.8831,34.5684,88.1399,271.9971,0,U,45159,999,30929,-.67209E-2,-.2333E-4,0
ONEWEB-0057,2020-008AF,2026-06-25T14:57:23.613408,13.10379819,.000204,87.8828,34.5930,70.4160,289.7188,0,U,45160,999,30945,-.32058E-2,-.1106E-4,0
ONEWEB-0058,2020-008AG,2026-06-25T14:38:24.121824,13.10370265,.0001647,87.8818,34.6008,89.5887,270.5429,0,U,45161,999,30952,.58808E-3,.218E-5,0
ONEWEB-0059,2020-008AH,2026-06-25T14:32:57.592032,13.10393779,.0001737,87.8822,34.6003,76.0171,284.1150,0,U,45162,999,30942,-.13432E-1,-.4675E-4,0
ONEWEB-0062,2020-008AJ,2026-06-25T15:06:46.250208,13.10362409,.0001719,87.8837,34.5842,96.8491,263.2831,0,U,45163,999,30929,.2742E-2,.97E-5,0
ONEWEB-0065,2020-008AK,2026-06-25T14:05:42.985248,13.10337513,.0001879,87.8831,34.6007,76.4250,283.7087,0,U,45164,999,30898,.15425E-1,.5398E-4,0
ONEWEB-0066,2020-020A,2026-06-25T14:46:31.154304,13.11417698,.0001653,87.8882,19.3931,85.0196,275.1121,0,U,45424,999,30378,.67105E-3,.251E-5,0
ONEWEB-0067,2020-020B,2026-06-25T15:40:59.561760,13.11422567,.0001874,87.8901,19.3087,81.8765,278.2575,0,U,45425,999,30384,-.67461E-3,-.226E-5,0
ONEWEB-0080,2020-020C,2026-06-25T15:40:25.495104,13.11413644,.0001743,87.8893,19.3825,97.3865,262.7461,0,U,45426,999,30381,-.56413E-3,-.187E-5,0
ONEWEB-0090,2020-020D,2026-06-25T14:32:03.935904,13.11418215,.0001832,87.8893,19.3966,89.4045,270.7293,0,U,45427,999,30377,-.50095E-3,-.165E-5,0
ONEWEB-0061,2020-020E,2026-06-25T15:18:03.714336,13.11414690,.0001765,87.8890,19.3746,87.5553,272.5777,0,U,45428,999,30373,.12042E-2,.439E-5,0
ONEWEB-0081,2020-020F,2026-06-25T14:51:24.279264,13.11417504,.0001752,87.8888,19.3885,81.5112,278.6214,0,U,45429,999,30384,.12503E-2,.456E-5,0
ONEWEB-0069,2020-020G,2026-06-25T14:54:02.754144,13.11417082,.0001672,87.8882,19.3899,82.1112,278.0205,0,U,45430,999,30377,.10599E-2,.388E-5,0
ONEWEB-0031,2020-020H,2026-06-25T13:55:14.052864,13.11414290,.000182,87.8877,19.4037,93.5839,266.5497,0,U,45431,999,30375,-.85456E-3,-.29E-5,0
ONEWEB-0027,2020-020J,2026-06-25T12:55:01.013088,13.17652259,.0002185,87.9134,4.2037,101.7385,258.3992,0,U,45432,999,30745,.55206E-4,.34E-6,0
ONEWEB-0064,2020-020K,2026-06-25T13:52:48.054144,13.11414814,.0001877,87.8881,19.3959,92.3119,267.8224,0,U,45433,999,30378,-.77081E-3,-.26E-5,0
ONEWEB-0018,2020-020L,2026-06-25T14:38:58.697376,13.11421444,.0001411,87.8886,19.3893,86.6951,273.4339,0,U,45434,999,30373,.17527E-3,.75E-6,0
ONEWEB-0083,2020-020M,2026-06-25T14:24:44.267904,13.11418167,.0001775,87.8892,19.3854,89.3966,270.7365,0,U,45435,999,30377,-.99704E-3,-.341E-5,0
ONEWEB-0095,2020-020N,2026-06-25T14:12:30.686976,13.11415834,.0002531,87.8889,19.3958,87.9449,272.1969,0,U,45436,999,30377,-.14937E-2,-.517E-5,0
ONEWEB-0092,2020-020P,2026-06-25T14:56:16.313856,13.11412627,.000205,87.8890,19.3809,82.2324,277.9037,0,U,45437,999,30389,.12893E-2,.47E-5,0
ONEWEB-0085,2020-020Q,2026-06-25T14:24:20.493216,13.11418116,.0001816,87.8884,19.3915,88.2788,271.8548,0,U,45438,999,30377,-.11141E-2,-.382E-5,0
ONEWEB-0096,2020-020R,2026-06-25T14:26:57.632352,13.11416785,.0001959,87.8889,19.3879,88.2192,271.9160,0,U,45439,999,30376,-.87076E-3,-.296E-5,0
ONEWEB-0037,2020-020S,2026-06-25T15:10:20.608608,13.11912844,.0001894,87.8903,19.3545,86.3182,273.8163,0,U,45440,999,30380,.13554E-2,.497E-5,0
ONEWEB-0042,2020-020T,2026-06-25T14:12:07.986240,13.11417008,.0001819,87.8889,19.3861,84.3690,275.7646,0,U,45441,999,30376,-.14749E-2,-.51E-5,0
ONEWEB-0098,2020-020U,2026-06-25T14:06:13.082688,13.11417053,.000182,87.8890,19.3960,89.8500,270.2837,0,U,45442,999,30374,-.14246E-2,-.492E-5,0
ONEWEB-0055,2020-020V,2026-06-25T15:25:23.943936,13.11415994,.0001813,87.8888,19.3839,90.2591,269.8744,0,U,45443,999,30372,.85298E-3,.315E-5,0
ONEWEB-0093,2020-020W,2026-06-25T13:06:37.393632,13.11416292,.0001723,87.8892,19.3962,73.2461,286.8856,0,U,45444,999,30377,.1227E-2,.448E-5,0
ONEWEB-0029,2020-020X,2026-06-25T15:35:32.165376,13.11413718,.0001662,87.8878,19.3840,81.4310,278.7006,0,U,45445,999,30376,.61948E-4,.35E-6,0
ONEWEB-0068,2020-020Y,2026-06-25T14:56:05.881056,13.11417118,.0001688,87.8890,19.3850,82.2860,277.8460,0,U,45446,999,30370,.14085E-2,.512E-5,0
