ONEWEB-0053             
1 45157U 20008AC  26176.67566125 -.00004934  00000+0 -14173-1 0  9990
2 45157  87.8824  34.5927 0001579  69.2255 290.9041 13.10403465309028
ONEWEB-0054             
1 45158U 20008AD  26176.63494574  .00001669  00000+0  47466-2 0  9997
2 45158  87.8832  34.5862 0002395  92.3223 267.8179 13.10355711309132
ONEWEB-0056             
1 45159U 20008AE  26176.68230649 -.00002333  00000+0 -67209-2 0  9992
2 45159  87.8831  34.5684 0002118  88.1399 271.9971 13.10388255309296
ONEWEB-0057             
1 45160U 20008AF  26176.62318997 -.00001106  00000+0 -32058-2 0  9992
2 45160  87.8828  34.5930 0002040  70.4160 289.7188 13.10379819309453
ONEWEB-0058             
1 45161U 20008AG  26176.61000141  .00000218  00000+0  58808-3 0  9994
2 45161  87.8818  34.6008 0001647  89.5887 270.5429 13.10370265309529
ONEWEB-0059             
1 45162U 20008AH  26176.60622213 -.00004675  00000+0 -13432-1 0  9999
2 45162  87.8822  34.6003 0001737  76.0171 284.1150 13.10393779309423
ONEWEB-0062             
1 45163U 20008AJ  26176.62970197  .00000970  00000+0  27420-2 0  9994
2 45163  87.8837  34.5842 0001719  96.8491 263.2831 13.10362409309290
ONEWEB-0065             
1 45164U 20008AK  26176.58730307  .00005398  00000+0  15425-1 0  9997
2 45164  87.8831  34.6007 0001879  76.4250 283.7087 13.10337513308986
ONEWEB-0066             
1 45424U 20020A   26176.61563836  .00000251  00000+0  67105-3 0  9992
2 45424  87.8882  19.3931 0001653  85.0196 275.1121 13.11417698303783
ONEWEB-0067             
1 45425U 20020B   26176.65346715 -.00000226  00000+0 -67461-3 0  9991
2 45425  87.8901  19.3087 0001874  81.8765 278.2575 13.11422567303844
ONEWEB-0080             
1 45426U 20020C   26176.65307286 -.00000187  00000+0 -56413-3 0  9993
2 45426  87.8893  19.3825 0001743  97.3865 262.7461 13.11413644303818
ONEWEB-0090             
1 45427U 20020D   26176.60560111 -.00000165  00000+0 -50095-3 0  9993
2 45427  87.8893  19.3966 0001832  89.4045 270.7293 13.11418215303772
ONEWEB-0061             
1 45428U 20020E   26176.63754299  .00000439  00000+0  12042-2 0  9990
2 45428  87.8890  19.3746 0001765  87.5553 272.5777 13.11414690303730
ONEWEB-0081             
1 45429U 20020F   26176.61903101  .00000456  00000+0  12503-2 0  9998
2 45429  87.8888  19.3885 0001752  81.5112 278.6214 13.11417504303845
ONEWEB-0069             
1 45430U 20020G   26176.62086521  .00000388  00000+0  10599-2 0  9996
2 45430  87.8882  19.3899 0001672  82.1112 278.0205 13.11417082303771
ONEWEB-0031             
1 45431U 20020H   26176.58002376 -.00000290  00000+0 -85456-3 0  9997
2 45431  87.8877  19.4037 0001820  93.5839 266.5497 13.11414290303759
ONEWEB-0027             
1 45432U 20020J   26176.53820617  .00000034  00000+0  55206-4 0  9994
2 45432  87.9134   4.2037 0002185 101.7385 258.3992 13.17652259307457
ONEWEB-0064             
1 45433U 20020K   26176.57833396 -.00000260  00000+0 -77081-3 0  9994
2 45433  87.8881  19.3959 0001877  92.3119 267.8224 13.11414814303785
ONEWEB-0018             
1 45434U 20020L   26176.61040159  .00000075  00000+0  17527-3 0  9998
2 45434  87.8886  19.3893 0001411  86.6951 273.4339 13.11421444303734
ONEWEB-0083             
1 45435U 20020M   26176.60051236 -.00000341  00000+0 -99704-3 0  9991
2 45435  87.8892  19.3854 0001775  89.3966 270.7365 13.11418167303779
ONEWEB-0095             
1 45436U 20020N   26176.59202184 -.00000517  00000+0 -14937-2 0  9999
2 45436  87.8889  19.3958 0002531  87.9449 272.1969 13.11415834303776
ONEWEB-0092             
1 45437U 20020P   26176.62241104  .00000470  00000+0  12893-2 0  9994
2 45437  87.8890  19.3809 0002050  82.2324 277.9037 13.11412627303899
ONEWEB-0085             
1 45438U 20020Q   26176.60023719 -.00000382  00000+0 -11141-2 0  9992
2 45438  87.8884  19.3915 0001816  88.2788 271.8548 13.11418116303776
ONEWEB-0096             
1 45439U 20020R   26176.60205593 -.00000296  00000+0 -87076-3 0  9990
2 45439  87.8889  19.3879 0001959  88.2192 271.9160 13.11416785303768
ONEWEB-0037             
1 45440U 20020S   26176.63218297  .00000497  00000+0  13554-2 0  9990
2 45440  87.8903  19.3545 0001894  86.3182 273.8163 13.11912844303809
ONEWEB-0042             
1 45441U 20020T   26176.59175910 -.00000510  00000+0 -14749-2 0  9995
2 45441  87.8889  19.3861 0001819  84.3690 275.7646 13.11417008303767
ONEWEB-0098             
1 45442U 20020U   26176.58765142 -.00000492  00000+0 -14246-2 0  9998
2 45442  87.8890  19.3960 0001820  89.8500 270.2837 13.11417053303742
ONEWEB-0055             
1 45443U 20020V   26176.64263824  .00000315  00000+0  85298-3 0  9994
2 45443  87.8888  19.3839 0001813  90.2591 269.8744 13.11415994303724
ONEWEB-0093             
1 45444U 20020W   26176.54626613  .00000448  00000+0  12270-2 0  9999
2 45444  87.8892  19.3962 0001723  73.2461 286.8856 13.11416292303774
ONEWEB-0029             
1 45445U 20020X   26176.64967784  .00000035  00000+0  61948-4 0  9998
2 45445  87.8878  19.3840 0001662  81.4310 278.7006 13.11413718303766
ONEWEB-0068             
1 45446U 20020Y   26176.62229029  .00000512  00000+0  14085-2 0  9998
2 45446  87.8890  19.3850 0001688  82.2860 277.8460 13.11417118303705
